SCD 1                   
1 22490U 93009B   26162.56778659  .00000360  00000+0  47689-4 0  9994
2 22490  24.9685 242.2746 0042180  78.5920 305.7063 14.46117050760305
TECHSAT 1B (GO-32)      
1 25397U 98043D   26162.58543430  .00000048  00000+0  41012-4 0  9992
2 25397  99.0065 155.2028 0000733 176.4907 183.6276 14.24427354450533
SCD 2                   
1 25504U 98060A   26162.15226959  .00000361  00000+0  50104-4 0  9998
2 25504  24.9944 109.3743 0016932  60.0003 324.7192 14.45523442459456
DLR-TUBSAT              
1 25757U 99029B   26162.57554073  .00000082  00000+0  31892-4 0  9994
2 25757  98.6694 157.8950 0014412  12.1658 347.9882 14.52425467432437
TERRA                   
1 25994U 99068A   26162.61800161  .00000331  00000+0  76311-4 0  9999
2 25994  97.9458 212.3849 0001165 212.7664 264.0543 14.61098725408798
MAROC-TUBSAT            
1 27004U 01056D   26162.45144215 -.00000012  00000+0  39211-4 0  9991
2 27004  99.8079 339.2030 0020153 155.6493 258.9594 13.70262240225403
AQUA                    
1 27424U 02022A   26162.67019488  .00000681  00000+0  14524-3 0  9998
2 27424  98.4275 131.8429 0001326  53.0500 124.9393 14.62149861282464
SHIYAN-1 (SY-1)         
1 28220U 04012A   26162.50740742  .00013024  00000+0  40292-3 0  9996
2 28220  97.8695 240.2070 0006062  51.0427 309.1354 15.33617096210221
AURA                    
1 28376U 04026A   26162.57685042  .00000669  00000+0  14526-3 0  9993
2 28376  98.3415 118.9838 0001284  72.5633 287.5708 14.61320729165393
IRS-P5 (CARTOSAT-1)     
1 28649U 05017A   26162.57537360  .00001079  00000+0  11434-3 0  9997
2 28649  97.5309 185.8944 0002678  87.5570 272.5956 14.91034548142987
SINAH 1                 
1 28893U 05043D   26162.58701483  .00000269  00000+0  60527-4 0  9995
2 28893  98.2853 296.8763 0013220 296.0423  63.9418 14.64153984 99703
RESURS-DK 1             
1 29228U 06021A   26162.61485774  .00002239  00000+0  13189-3 0  9991
2 29228  69.9338 353.9772 0006676 296.0676  63.9802 15.13192789101736
ARIRANG-2 (KOMPSAT-2)   
1 29268U 06031A   26162.62836795  .00000103  00000+0  27710-4 0  9994
2 29268  97.8311 347.3444 0015937  90.6429   0.9235 14.64656121 60665
LAPAN-TUBSAT            
1 29709U 07001A   26162.59794444 -.00000074  00000+0 -18699-5 0  9998
2 29709  98.1343 161.6959 0011446 198.2312 161.8494 14.85942385 50328
HAIYANG-1B              
1 31113U 07010A   26162.55118838  .00000078  00000+0  45317-4 0  9991
2 31113  98.3492 144.6150 0012676 213.8239 146.2138 14.31025505999825
COSMO-SKYMED 1          
1 31598U 07023A   26162.58747566  .00002102  00000+0  18756-3 0  9997
2 31598  97.8849 354.3971 0000994  88.0018 272.1318 14.97073132 28957
TERRASAR-X              
1 31698U 07026A   26160.28753291  .00000433  00000+0  23833-4 0  9996
2 31698  97.4448 168.1064 0001684  80.8129 279.3296 15.19149435 52027
WORLDVIEW-1 (WV-1)      
1 32060U 07041A   26162.58063870  .00005351  00000+0  22249-3 0  9992
2 32060  97.3865 282.4054 0002767  36.8512 323.2915 15.24204865 42023
YAOGAN-3                
1 32289U 07055A   26162.62345616  .00001909  00000+0  19995-3 0  9995
2 32289  97.8158 192.5560 0001812  86.3067 273.8358 14.90758460  5043
COSMO-SKYMED 2          
1 32376U 07059A   26162.62517575  .00000374  00000+0  53516-4 0  9994
2 32376  97.8885 346.3039 0001382  85.6248 274.5124 14.82150411  1185
RADARSAT-2              
1 32382U 07061A   26162.65005458 -.00000099  00000+0 -21544-4 0  9991
2 32382  98.5781 169.6616 0001311  82.7410 277.3921 14.29983146965166
CARTOSAT-2A             
1 32783U 08021A   26162.63501476  .00001246  00000+0  17432-3 0  9995
2 32783  97.7639 211.5332 0012939 125.0652 235.1776 14.79232419977981
HUANJING 1A (HJ-1A)     
1 33320U 08041A   26162.63723737  .00000690  00000+0  88878-4 0  9996
2 33320  97.6680 148.6898 0019484 152.2727 207.9531 14.83971774957587
HUANJING 1B (HJ-1B)     
1 33321U 08041B   26162.60379589  .00001255  00000+0  15799-3 0  9995
2 33321  97.6516 151.8466 0035530 199.4731 160.5129 14.83309069957580
GEOEYE 1                
1 33331U 08042A   26162.55023904  .00000385  00000+0  81272-4 0  9991
2 33331  98.1236 236.5528 0005545  83.0522 277.1312 14.64720587949328
THEOS                   
1 33396U 08049A   26162.61421751  .00000185  00000+0  10653-3 0  9990
2 33396  98.5576 220.0789 0001268  79.1688 280.9632 14.20133310917173
COSMO-SKYMED 3          
1 33412U 08054A   26162.63184829  .00003734  00000+0  25385-3 0  9990
2 33412  97.8286  21.1112 0014427 287.8492  72.1161 15.06914484956102
YAOGAN-4                
1 33446U 08061A   26162.56765651  .00000846  00000+0  11009-3 0  9994
2 33446  97.9309  96.1195 0015781  89.0312 271.2710 14.83189475944833
GOSAT (IBUKI)           
1 33492U 09002A   26162.54742248  .00000995  00000+0  18396-3 0  9997
2 33492  98.0885 273.6993 0001611  87.9943 272.1447 14.67539921930634
DEIMOS-1                
1 35681U 09041A   26162.62454725  .00000827  00000+0  12935-3 0  9998
2 35681  97.7396 320.0940 0001298 138.1603 221.9707 14.75233371906061
