OBJECT_NAME,OBJECT_ID,EPOCH,MEAN_MOTION,ECCENTRICITY,INCLINATION,RA_OF_ASC_NODE,ARG_OF_PERICENTER,MEAN_ANOMALY,EPHEMERIS_TYPE,CLASSIFICATION_TYPE,NORAD_CAT_ID,ELEMENT_SET_NO,REV_AT_EPOCH,BSTAR,MEAN_MOTION_DOT,MEAN_MOTION_DDOT
SCD 1,1993-009B,2026-06-11T13:37:36.761376,14.46117050,.00421806,24.9685,242.2746,78.5920,305.7063,0,U,22490,999,76030,.47688576E-4,.36E-5,0
TECHSAT 1B (GO-32),1998-043D,2026-06-11T14:03:01.523520,14.24427354,.00007338,99.0065,155.2028,176.4907,183.6276,0,U,25397,999,45053,.41012145E-4,.48E-6,0
SCD 2,1998-060A,2026-06-11T03:39:16.092576,14.45523442,.00169327,24.9944,109.3743,60.0003,324.7192,0,U,25504,999,45945,.50104351E-4,.361E-5,0
DLR-TUBSAT,1999-029B,2026-06-11T13:48:46.719072,14.52425467,.00144121,98.6694,157.8950,12.1658,347.9882,0,U,25757,999,43243,.31891718E-4,.82E-6,0
TERRA,1999-068A,2026-06-11T14:49:55.339104,14.61098725,.00011655,97.9458,212.3849,212.7664,264.0543,0,U,25994,999,40879,.76310553E-4,.331E-5,0
MAROC-TUBSAT,2001-056D,2026-06-11T10:50:04.601760,13.70262240,.0020153,99.8079,339.2030,155.6493,258.9594,0,U,27004,999,22540,.39210949E-4,-.12E-6,0
AQUA,2002-022A,2026-06-11T16:05:04.837632,14.62149861,.00013261,98.4275,131.8429,53.0500,124.9393,0,U,27424,999,28246,.14523525E-3,.681E-5,0
SHIYAN-1 (SY-1),2004-012A,2026-06-11T12:10:40.001088,15.33617096,.00060628,97.8695,240.2070,51.0427,309.1354,0,U,28220,999,21022,.40292428E-3,.13024E-3,0
AURA,2004-026A,2026-06-11T13:50:39.876288,14.61320729,.00012846,98.3415,118.9838,72.5633,287.5708,0,U,28376,999,16539,.14526289E-3,.669E-5,0
IRS-P5 (CARTOSAT-1),2005-017A,2026-06-11T13:48:32.279040,14.91034548,.00026785,97.5309,185.8944,87.5570,272.5956,0,U,28649,999,14298,.11433928E-3,.1079E-4,0
SINAH 1,2005-043D,2026-06-11T14:05:18.081312,14.64153984,.00132203,98.2853,296.8763,296.0423,63.9418,0,U,28893,999,9970,.60526555E-4,.269E-5,0
RESURS-DK 1,2006-021A,2026-06-11T14:45:23.708736,15.13192789,.00066764,69.9338,353.9772,296.0676,63.9802,0,U,29228,999,10173,.1318948E-3,.2239E-4,0
ARIRANG-2 (KOMPSAT-2),2006-031A,2026-06-11T15:04:50.990880,14.64656121,.00159374,97.8311,347.3444,90.6429,0.9235,0,U,29268,999,6066,.27710219E-4,.103E-5,0
LAPAN-TUBSAT,2007-001A,2026-06-11T14:21:02.399616,14.85942385,.00114468,98.1343,161.6959,198.2312,161.8494,0,U,29709,999,5032,-.1869923E-5,-.74E-6,0
HAIYANG-1B,2007-010A,2026-06-11T13:13:42.676032,14.31025505,.00126764,98.3492,144.6150,213.8239,146.2138,0,U,31113,999,99982,.4531662E-4,.78E-6,0
COSMO-SKYMED 1,2007-023A,2026-06-11T14:05:57.897024,14.97073132,.00009942,97.8849,354.3971,88.0018,272.1318,0,U,31598,999,2895,.18756127E-3,.2102E-4,0
TERRASAR-X,2007-026A,2026-06-09T06:54:02.843424,15.19149435,.00016846,97.4448,168.1064,80.8129,279.3296,0,U,31698,999,5202,.23832718E-4,.433E-5,0
WORLDVIEW-1 (WV-1),2007-041A,2026-06-11T13:56:07.183680,15.24204865,.00027676,97.3865,282.4054,36.8512,323.2915,0,U,32060,999,4202,.22248602E-3,.5351E-4,0
YAOGAN-3,2007-055A,2026-06-11T14:57:46.612224,14.90758460,.00018123,97.8158,192.5560,86.3067,273.8358,0,U,32289,999,504,.1999465E-3,.1909E-4,0
COSMO-SKYMED 2,2007-059A,2026-06-11T15:00:15.184800,14.82150411,.00013826,97.8885,346.3039,85.6248,274.5124,0,U,32376,999,118,.53516459E-4,.374E-5,0
RADARSAT-2,2007-061A,2026-06-11T15:36:04.715712,14.29983146,.00013111,98.5781,169.6616,82.7410,277.3921,0,U,32382,999,96516,-.21544246E-4,-.99E-6,0
CARTOSAT-2A,2008-021A,2026-06-11T15:14:25.275264,14.79232419,.00129399,97.7639,211.5332,125.0652,235.1776,0,U,32783,999,97798,.17431945E-3,.1246E-4,0
HUANJING 1A (HJ-1A),2008-041A,2026-06-11T15:17:37.308768,14.83971774,.00194844,97.6680,148.6898,152.2727,207.9531,0,U,33320,999,95758,.88877971E-4,.69E-5,0
HUANJING 1B (HJ-1B),2008-041B,2026-06-11T14:29:27.964896,14.83309069,.00355306,97.6516,151.8466,199.4731,160.5129,0,U,33321,999,95758,.15799065E-3,.1255E-4,0
GEOEYE 1,2008-042A,2026-06-11T13:12:20.653056,14.64720587,.00055451,98.1236,236.5528,83.0522,277.1312,0,U,33331,999,94932,.81271909E-4,.385E-5,0
THEOS,2008-049A,2026-06-11T14:44:28.392864,14.20133310,.00012685,98.5576,220.0789,79.1688,280.9632,0,U,33396,999,91717,.10653281E-3,.185E-5,0
COSMO-SKYMED 3,2008-054A,2026-06-11T15:09:51.692256,15.06914484,.00144277,97.8286,21.1112,287.8492,72.1161,0,U,33412,999,95610,.25385247E-3,.3734E-4,0
YAOGAN-4,2008-061A,2026-06-11T13:37:25.522464,14.83189475,.00157813,97.9309,96.1195,89.0312,271.2710,0,U,33446,999,94483,.11009246E-3,.846E-5,0
GOSAT (IBUKI),2009-002A,2026-06-11T13:08:17.302272,14.67539921,.00016112,98.0885,273.6993,87.9943,272.1447,0,U,33492,999,93063,.18395969E-3,.995E-5,0
DEIMOS-1,2009-041A,2026-06-11T14:59:20.882400,14.75233371,.00012988,97.7396,320.0940,138.1603,221.9707,0,U,35681,999,90606,.12934603E-3,.827E-5,0
